IRIDIUM 159             
1 43578U 18061K   25180.52637048  .00000037  00000+0  60329-5 0  9998
2 43578  86.3980 204.0469 0002279  96.3843 263.7612 14.34218077362837
IRIDIUM 180             
1 43922U 19002A   25180.17702518  .00000004  00000+0 -56079-5 0  9995
2 43922  86.3993 141.1743 0002287  86.1374 274.0083 14.34217595338435
IRIDIUM 176             
1 43923U 19002B   25179.93081922  .00000309  00000+0  45054-4 0  9994
2 43923  86.6113 141.2690 0003146  80.2238 279.9335 14.72254271347274
IRIDIUM 168             
1 43924U 19002C   25180.17068265  .00000052  00000+0  11659-4 0  9997
2 43924  86.3993 141.2441 0002308  85.4241 274.7218 14.34217751338376
IRIDIUM 173             
1 43925U 19002D   25180.43707189  .00000059  00000+0  13919-4 0  9990
2 43925  86.3988 141.0364 0002468  84.4021 275.7456 14.34217913338404
IRIDIUM 169             
1 43926U 19002E   25180.53493138  .00000031  00000+0  36170-5 0  9993
2 43926  86.4250 172.5780 0003422  68.4417 291.7146 14.38608423339523
IRIDIUM 172             
1 43927U 19002F   25180.15165535  .00000030  00000+0  36273-5 0  9992
2 43927  86.3988 141.1624 0002448  91.4247 268.7229 14.34217688338366
IRIDIUM 175             
1 43928U 19002G   25180.19767409  .00000615  00000+0  93509-4 0  9998
2 43928  86.1498  92.9902 0002210  61.9130 298.2310 14.72244451347306
